{
    "type": "FeatureCollection",
    "features": [
        {
            "type": "Feature",
            "geometry": {
                "type": "Point",
                "coordinates": [
                    1000.0,
                    1000.0
                ]
            },
            "properties": {
                "Point_ID": "P0"
            }
        },
        {
            "type": "Feature",
            "geometry": {
                "type": "Point",
                "coordinates": [
                    1081.8418932662605,
                    1081.7977013812772
                ]
            },
            "properties": {
                "Point_ID": "P1"
            }
        },
        {
            "type": "Feature",
            "geometry": {
                "type": "Point",
                "coordinates": [
                    1157.880619974572,
                    1047.5698360655206
                ]
            },
            "properties": {
                "Point_ID": "P2"
            }
        },
        {
            "type": "Feature",
            "geometry": {
                "type": "Point",
                "coordinates": [
                    1081.4104616867867,
                    924.174200313256
                ]
            },
            "properties": {
                "Point_ID": "P3"
            }
        },
        {
            "type": "Feature",
            "geometry": {
                "type": "Polygon",
                "coordinates": [
                    [
                        [
                            1000.0,
                            1000.0
                        ],
                        [
                            1081.8418932662605,
                            1081.7977013812772
                        ],
                        [
                            1157.880619974572,
                            1047.5698360655206
                        ],
                        [
                            1081.4104616867867,
                            924.174200313256
                        ],
                        [
                            1000.0,
                            999.9999999999999
                        ]
                    ]
                ]
            },
            "properties": {
                "Name": "Traverse Boundary"
            }
        }
    ]
}